{
  "type": "FeatureCollection",
  "features": [
    {
      "type": "Feature",
      "properties": {
        "norad_id": 30127,
        "name": "FENGYUN 1C DEB",
        "group": "fengyun-1c-debris",
        "lat": -30.96211127548076,
        "lon": -153.0916750041905,
        "alt_km": 795.9126970211646,
        "timestamp": "2025-12-11T08:58:27.397678+00:00",
        "meta_object_name": "FENGYUN 1C DEB",
        "meta_object_id": "1999-025SG",
        "meta_epoch": "2025-12-10T03:03:34.748064",
        "meta_mean_motion": 14.37931878,
        "meta_eccentricity": 0.00851648,
        "meta_inclination": 98.2074,
        "meta_ra_of_asc_node": 200.75,
        "meta_arg_of_pericenter": 86.9031,
        "meta_mean_anomaly": 274.1898,
        "meta_ephemeris_type": 0,
        "meta_classification_type": "U",
        "meta_norad_cat_id": 30127,
        "meta_element_set_no": 999,
        "meta_rev_at_epoch": 97198,
        "meta_bstar": 0.0032774585,
        "meta_mean_motion_dot": 0.00010296,
        "meta_mean_motion_ddot": 0,
        "tle_line1": "1 30127U 99025SG  25344.12748551  .00010296  00000+0  32775-2 0  9992",
        "tle_line2": "2 30127  98.2074 200.7500 0085164  86.9031 274.1898 14.37931878971984"
      },
      "geometry": {
        "type": "Point",
        "coordinates": [
          -153.0916750041905,
          -30.96211127548076
        ]
      }
    },
    {
      "type": "Feature",
      "properties": {
        "norad_id": 30128,
        "name": "FENGYUN 1C DEB",
        "group": "fengyun-1c-debris",
        "lat": -82.80652867100603,
        "lon": 88.26030203913646,
        "alt_km": 803.3829545206008,
        "timestamp": "2025-12-11T08:58:27.397688+00:00",
        "meta_object_name": "FENGYUN 1C DEB",
        "meta_object_id": "1999-025SH",
        "meta_epoch": "2025-12-10T05:46:17.892768",
        "meta_mean_motion": 14.4603266,
        "meta_eccentricity": 0.0107486,
        "meta_inclination": 96.9805,
        "meta_ra_of_asc_node": 343.4289,
        "meta_arg_of_pericenter": 132.7344,
        "meta_mean_anomaly": 357.8434,
        "meta_ephemeris_type": 0,
        "meta_classification_type": "U",
        "meta_norad_cat_id": 30128,
        "meta_element_set_no": 999,
        "meta_rev_at_epoch": 97275,
        "meta_bstar": 0.0034512,
        "meta_mean_motion_dot": 0.00013202,
        "meta_mean_motion_ddot": 0,
        "tle_line1": "1 30128U 99025SH  25344.24048487  .00013202  00000+0  34512-2 0  9998",
        "tle_line2": "2 30128  96.9805 343.4289 0107486 132.7344 357.8434 14.46032660972752"
      },
      "geometry": {
        "type": "Point",
        "coordinates": [
          88.26030203913646,
          -82.80652867100603
        ]
      }
    },
    {
      "type": "Feature",
      "properties": {
        "norad_id": 30129,
        "name": "FENGYUN 1C DEB",
        "group": "fengyun-1c-debris",
        "lat": 78.44301669811784,
        "lon": -116.24791948835497,
        "alt_km": 748.1553014073106,
        "timestamp": "2025-12-11T08:58:27.397699+00:00",
        "meta_object_name": "FENGYUN 1C DEB",
        "meta_object_id": "1999-025SJ",
        "meta_epoch": "2025-12-10T07:36:57.571200",
        "meta_mean_motion": 14.01571029,
        "meta_eccentricity": 0.0188665,
        "meta_inclination": 98.0275,
        "meta_ra_of_asc_node": 286.4599,
        "meta_arg_of_pericenter": 99.2565,
        "meta_mean_anomaly": 54.7493,
        "meta_ephemeris_type": 0,
        "meta_classification_type": "U",
        "meta_norad_cat_id": 30129,
        "meta_element_set_no": 999,
        "meta_rev_at_epoch": 96444,
        "meta_bstar": 0.00069482,
        "meta_mean_motion_dot": 1.194e-05,
        "meta_mean_motion_ddot": 0,
        "tle_line1": "1 30129U 99025SJ  25344.31733300  .00001194  00000+0  69482-3 0  9994",
        "tle_line2": "2 30129  98.0275 286.4599 0188665  99.2565  54.7493 14.01571029964440"
      },
      "geometry": {
        "type": "Point",
        "coordinates": [
          -116.24791948835497,
          78.44301669811784
        ]
      }
    },
    {
      "type": "Feature",
      "properties": {
        "norad_id": 30131,
        "name": "FENGYUN 1C DEB",
        "group": "fengyun-1c-debris",
        "lat": 53.772572743694965,
        "lon": 64.57048759488872,
        "alt_km": 834.0825108815507,
        "timestamp": "2025-12-11T08:58:27.397709+00:00",
        "meta_object_name": "FENGYUN 1C DEB",
        "meta_object_id": "1999-025SL",
        "meta_epoch": "2025-12-10T12:32:39.095808",
        "meta_mean_motion": 14.21145887,
        "meta_eccentricity": 0.00830148,
        "meta_inclination": 99.0744,
        "meta_ra_of_asc_node": 76.2963,
        "meta_arg_of_pericenter": 165.0194,
        "meta_mean_anomaly": 218.0136,
        "meta_ephemeris_type": 0,
        "meta_classification_type": "U",
        "meta_norad_cat_id": 30131,
        "meta_element_set_no": 999,
        "meta_rev_at_epoch": 96657,
        "meta_bstar": 0.0041412543,
        "meta_mean_motion_dot": 9.287e-05,
        "meta_mean_motion_ddot": 0,
        "tle_line1": "1 30131U 99025SL  25344.52267472  .00009287  00000+0  41413-2 0  9996",
        "tle_line2": "2 30131  99.0744  76.2963 0083014 165.0194 218.0136 14.21145887966573"
      },
      "geometry": {
        "type": "Point",
        "coordinates": [
          64.57048759488872,
          53.772572743694965
        ]
      }
    },
    {
      "type": "Feature",
      "properties": {
        "norad_id": 30132,
        "name": "FENGYUN 1C DEB",
        "group": "fengyun-1c-debris",
        "lat": 3.5716959192114097,
        "lon": 119.5092692767514,
        "alt_km": 955.3333774925777,
        "timestamp": "2025-12-11T08:58:27.397719+00:00",
        "meta_object_name": "FENGYUN 1C DEB",
        "meta_object_id": "1999-025SM",
        "meta_epoch": "2025-12-10T20:13:29.439840",
        "meta_mean_motion": 13.94847115,
        "meta_eccentricity": 0.01056669,
        "meta_inclination": 99.5773,
        "meta_ra_of_asc_node": 298.3544,
        "meta_arg_of_pericenter": 54.7927,
        "meta_mean_anomaly": 334.3508,
        "meta_ephemeris_type": 0,
        "meta_classification_type": "U",
        "meta_norad_cat_id": 30132,
        "meta_element_set_no": 999,
        "meta_rev_at_epoch": 96063,
        "meta_bstar": 0.00059076511,
        "meta_mean_motion_dot": 7.83e-06,
        "meta_mean_motion_ddot": 0,
        "tle_line1": "1 30132U 99025SM  25344.84270185  .00000783  00000+0  59077-3 0  9995",
        "tle_line2": "2 30132  99.5773 298.3544 0105666  54.7927 334.3508 13.94847115960637"
      },
      "geometry": {
        "type": "Point",
        "coordinates": [
          119.5092692767514,
          3.5716959192114097
        ]
      }
    },
    {
      "type": "Feature",
      "properties": {
        "norad_id": 30133,
        "name": "FENGYUN 1C DEB",
        "group": "fengyun-1c-debris",
        "lat": 2.9958929990965086,
        "lon": 151.7332585638609,
        "alt_km": 882.2835074208351,
        "timestamp": "2025-12-11T08:58:27.397730+00:00",
        "meta_object_name": "FENGYUN 1C DEB",
        "meta_object_id": "1999-025SN",
        "meta_epoch": "2025-12-10T17:40:55.976736",
        "meta_mean_motion": 14.06656158,
        "meta_eccentricity": 0.00855664,
        "meta_inclination": 98.3247,
        "meta_ra_of_asc_node": 151.5858,
        "meta_arg_of_pericenter": 266.174,
        "meta_mean_anomaly": 111.209,
        "meta_ephemeris_type": 0,
        "meta_classification_type": "U",
        "meta_norad_cat_id": 30133,
        "meta_element_set_no": 999,
        "meta_rev_at_epoch": 96350,
        "meta_bstar": 0.0023061015,
        "meta_mean_motion_dot": 3.917e-05,
        "meta_mean_motion_ddot": 0,
        "tle_line1": "1 30133U 99025SN  25344.73675899  .00003917  00000+0  23061-2 0  9990",
        "tle_line2": "2 30133  98.3247 151.5858 0085566 266.1740 111.2090 14.06656158963503"
      },
      "geometry": {
        "type": "Point",
        "coordinates": [
          151.7332585638609,
          2.9958929990965086
        ]
      }
    },
    {
      "type": "Feature",
      "properties": {
        "norad_id": 30134,
        "name": "FENGYUN 1C DEB",
        "group": "fengyun-1c-debris",
        "lat": -81.13468758931657,
        "lon": 83.25139413942807,
        "alt_km": 853.9420554710296,
        "timestamp": "2025-12-11T08:58:27.397766+00:00",
        "meta_object_name": "FENGYUN 1C DEB",
        "meta_object_id": "1999-025SP",
        "meta_epoch": "2025-12-10T12:04:49.342368",
        "meta_mean_motion": 14.13341801,
        "meta_eccentricity": 0.00188971,
        "meta_inclination": 98.6939,
        "meta_ra_of_asc_node": 3.5975,
        "meta_arg_of_pericenter": 189.7199,
        "meta_mean_anomaly": 334.7263,
        "meta_ephemeris_type": 0,
        "meta_classification_type": "U",
        "meta_norad_cat_id": 30134,
        "meta_element_set_no": 999,
        "meta_rev_at_epoch": 97214,
        "meta_bstar": 0.00068182,
        "meta_mean_motion_dot": 1.239e-05,
        "meta_mean_motion_ddot": 0,
        "tle_line1": "1 30134U 99025SP  25344.50334887  .00001239  00000+0  68182-3 0  9994",
        "tle_line2": "2 30134  98.6939   3.5975 0018897 189.7199 334.7263 14.13341801972140"
      },
      "geometry": {
        "type": "Point",
        "coordinates": [
          83.25139413942807,
          -81.13468758931657
        ]
      }
    }
  ]
}